[{"OBJECT_NAME":"VIZARD-METEO (RS38S)","OBJECT_ID":"2023-091Z","EPOCH":"2026-03-09T23:01:09.168960","MEAN_MOTION":15.32764799,"ECCENTRICITY":0.00087615,"INCLINATION":97.5192,"RA_OF_ASC_NODE":136.6522,"ARG_OF_PERICENTER":71.7666,"MEAN_ANOMALY":288.4529,"EPHEMERIS_TYPE":0,"CLASSIFICATION_TYPE":"U","NORAD_CAT_ID":57189,"ELEMENT_SET_NO":999,"REV_AT_EPOCH":14947,"BSTAR":0.00066106249,"MEAN_MOTION_DOT":0.00020895,"MEAN_MOTION_DDOT":0},{"OBJECT_NAME":"STARLINK-30920","OBJECT_ID":"2023-178E","EPOCH":"2026-03-09T23:34:38.009568","MEAN_MOTION":15.30188638,"ECCENTRICITY":0.0001158,"INCLINATION":53.1614,"RA_OF_ASC_NODE":347.1445,"ARG_OF_PERICENTER":64.2129,"MEAN_ANOMALY":295.8992,"EPHEMERIS_TYPE":0,"CLASSIFICATION_TYPE":"U","NORAD_CAT_ID":58378,"ELEMENT_SET_NO":999,"REV_AT_EPOCH":13011,"BSTAR":7.2183908e-5,"MEAN_MOTION_DOT":1.779e-5,"MEAN_MOTION_DDOT":0}]
